TRANSIT 16 [?]          
1 02807U 67048A   21342.42114429  .00000076  00000+0  10184-3 0  9990
2 02807  89.6495  43.2517 0021142  37.9111 333.5309 13.50279473685482
TRANSIT 17 [?]          
1 02965U 67092A   21341.72526760  .00000055  00000+0  64706-4 0  9998
2 02965  89.2486 138.0873 0048057 169.8781 201.0832 13.52991145672714
TRANSIT 18 [?]          
1 03133U 68012A   21342.34508399  .00000101  00000+0  13708-3 0  9993
2 03133  90.0016 271.5614 0077171  94.2533  15.7660 13.51118111647794
NNSS 19 [?]             
1 04507U 70067A   21341.48591900  .00000036  00000+0  39086-4 0  9991
2 04507  89.9123 240.9717 0170821 219.5688 139.2894 13.50788682524632
NNSS O-20 [?]           
1 06909U 73081A   21341.55764463  .00000090  00000+0  80666-4 0  9992
2 06909  89.8161 281.1580 0157298 150.9780 210.0242 13.70621820602724
TRANSAT [?]             
1 10457U 77106A   21342.48602003  .00000044  00000+0  53346-4 0  9995
2 10457  89.6919 128.4841 0027065  96.9577 331.4299 13.48656808170145
NOVA I [?]              
1 12458U 81044A   21341.65562856  .00000019  00000+0  24394-4 0  9996
2 12458  89.8959 109.6734 0014367 180.4905 191.9905 13.23046428957983
NOVA 3 [?]              
1 15362U 84110A   21342.48472524  .00000042  00000+0  79111-4 0  9997
2 15362  90.0951  65.2718 0032889  51.0469 320.4121 13.22814506793539
OSCAR 30 [?]            
1 15935U 85066A   21342.52068994  .00000076  00000+0  12458-3 0  9998
2 15935  90.1768  74.6485 0167466 256.7140 112.9136 13.35728993768986
OSCAR 24 [?]            
1 15936U 85066B   21342.50110434  .00000082  00000+0  13684-3 0  9993
2 15936  90.1700  66.7441 0167811 262.3349 107.4154 13.35589848771050
POLAR BEAR [?]          
1 17070U 86088A   21341.52652213  .00000062  00000+0  52844-4 0  9996
2 17070  89.5545 246.5348 0037507 220.0291 313.4790 13.74840016758576
OSCAR 27 [?]            
1 18361U 87080A   21342.11182508  .00000048  00000+0  63975-4 0  9995
2 18361  90.3249  28.0033 0106380 101.1246 260.1885 13.44535748678855
OSCAR 29 [?]            
1 18362U 87080B   21341.59797566  .00000050  00000+0  67324-4 0  9998
2 18362  90.3261  28.2959 0107867 122.1065  31.5572 13.44129146678126
OSCAR 23 [?]            
1 19070U 88033A   21342.48982830  .00000013  00000+0  13996-4 0  9998
2 19070  90.3369 330.5258 0188425 294.8180 175.6402 13.27499790628388
OSCAR 32 [?]            
1 19071U 88033B   21341.76881248  .00000022  00000+0  31991-4 0  9995
2 19071  90.3369 330.5839 0186550 284.8588 250.9312 13.27680442628116
NOVA 11 [?]             
1 19223U 88052A   21342.53286566  .00000080  00000+0  16945-3 0  9998
2 19223  89.9752  81.3942 0032252  92.0277 279.3229 13.22730951616041
OSCAR 25 [?]            
1 19419U 88074A   21342.52547757  .00000049  00000+0  66532-4 0  9993
2 19419  90.0012  17.8405 0098311 105.2321   9.3186 13.42268077630094
OSCAR 31 [?]            
1 19420U 88074B   21342.07636591  .00000040  00000+0  51516-4 0  9997
2 19420  90.0022  17.9970 0096507 100.7631 288.3015 13.42282232630149
